NORAD_CAT_ID,OBJECT_NAME,OBJECT_TYPE,EPOCH,MEAN_MOTION,ECCENTRICITY,INCLINATION,RA_OF_ASC_NODE,ARG_OF_PERICENTER,MEAN_ANOMALY,BSTAR,MEAN_MOTION_DOT,MEAN_MOTION_DDOT,TLE_LINE0,TLE_LINE1,TLE_LINE2,SEMIMAJOR_AXIS,PERIOD,APOGEE,PERIGEE,DECAYED
55272.0,STARLINK-5310,PAYLOAD,2023-02-25 20:06:02,15.69928581,0.0003847,70.0013,324.0462,262.3225,97.7534,0.000106,0.00012555,0.0,0 STARLINK-5310,1 55272U 23010D   23056.83753472  .00012555  00000-0  10600-3 0  9990,2 55272  70.0013 324.0462 0003847 262.3225  97.7534 15.69928581  6688,6737.238,91.724,361.695,356.512,0.0
55272.0,STARLINK-5310,PAYLOAD,2023-02-26 05:16:33,15.69955337,0.0003739,70.0016,322.9711,257.271,102.8068,0.00026778,0.00032153,0.0,0 STARLINK-5310,1 55272U 23010D   23057.21982970  .00032153  00000-0  26778-3 0  9999,2 55272  70.0016 322.9711 0003739 257.2710 102.8068 15.69955337  6428,6737.162,91.722,361.546,356.508,0.0
55272.0,STARLINK-5310,PAYLOAD,2023-02-26 20:34:04,15.69925613,0.0004209,70.0005,321.1788,268.7841,91.2873,4.7767e-05,5.536e-05,0.0,0 STARLINK-5310,1 55272U 23010D   23057.85699985  .00005536  00000-0  47767-4 0  9997,2 55272  70.0005 321.1788 0004209 268.7841  91.2873 15.69925613  6526,6737.247,91.724,361.948,356.276,0.0
55272.0,STARLINK-5310,PAYLOAD,2023-02-27 02:41:05,15.69933131,0.0003435,70.0007,320.4627,256.3485,103.7328,3.6987e-05,4.239e-05,0.0,0 STARLINK-5310,1 55272U 23010D   23058.11186373  .00004239  00000-0  36987-4 0  9990,2 55272  70.0007 320.4627 0003435 256.3485 103.7328 15.69933131  6886,6737.225,91.724,361.405,356.776,0.0
55272.0,STARLINK-5310,PAYLOAD,2023-02-27 17:58:35,15.6995301,0.0003623,70.0003,318.6709,257.2036,102.8755,8.3168e-05,9.811e-05,0.0,0 STARLINK-5310,1 55272U 23010D   23058.74902137  .00009811  00000-0  83168-4 0  9997,2 55272  70.0003 318.6709 0003623 257.2036 102.8755 15.69953010  6661,6737.168,91.722,361.474,356.593,0.0
55272.0,STARLINK-5310,PAYLOAD,2023-02-27 21:02:05,15.69947607,0.0003504,69.9997,318.3125,253.0155,107.0657,6.5673e-05,7.699e-05,0.0,0 STARLINK-5310,1 55272U 23010D   23058.87645508  .00007699  00000-0  65673-4 0  9990,2 55272  69.9997 318.3125 0003504 253.0155 107.0657 15.69947607  7005,6737.184,91.723,361.41,356.688,0.0
55272.0,STARLINK-5310,PAYLOAD,2023-02-28 04:40:51,15.69929107,0.0003976,69.9999,317.4184,265.0637,95.0105,1.6973e-05,1.829e-05,0.0,0 STARLINK-5310,1 55272U 23010D   23059.19504489  .00001829  00000-0  16973-4 0  9996,2 55272  69.9999 317.4184 0003976 265.0637  95.0105 15.69929107  6731,6737.237,91.724,361.781,356.423,0.0
55272.0,STARLINK-5310,PAYLOAD,2023-02-28 23:01:54,15.69899899,0.0002988,70.0017,315.2679,265.4047,94.6807,-2.5625e-05,-3.289e-05,0.0,0 STARLINK-5310,1 55272U 23010D   23059.95966404 -.00003289  00000-0 -25625-4 0  9997,2 55272  70.0017 315.2679 0002988 265.4047  94.6807 15.69899899  7178,6737.32,91.726,361.198,357.172,0.0
55272.0,STARLINK-5310,PAYLOAD,2023-03-01 02:05:25,15.69904059,0.0002858,70.0016,314.9094,267.0471,93.0398,4.8353e-06,3.69e-06,0.0,0 STARLINK-5310,1 55272U 23010D   23060.08709913  .00000369  00000-0  48353-5 0  9991,2 55272  70.0016 314.9094 0002858 267.0471  93.0398 15.69904059  6878,6737.308,91.725,361.099,357.248,0.0
55272.0,STARLINK-5310,PAYLOAD,2023-03-01 20:26:26,15.69945767,0.0003686,70.0005,312.758,264.8795,95.198,0.00010575,0.00012534,0.0,0 STARLINK-5310,1 55272U 23010D   23060.85169013  .00012534  00000-0  10575-3 0  9997,2 55272  70.0005 312.7580 0003686 264.8795  95.1980 15.69945767  7317,6737.189,91.723,361.537,356.571,0.0
55272.0,STARLINK-5310,PAYLOAD,2023-03-02 19:22:43,15.69922461,0.0002471,70.0026,310.071,267.9886,92.1026,-1.7348e-05,-2.297e-05,0.0,0 STARLINK-5310,1 55272U 23010D   23061.80744956 -.00002297  00000-0 -17348-4 0  9991,2 55272  70.0026 310.0710 0002471 267.9886  92.1026 15.69922461  7462,6737.256,91.724,360.786,357.456,0.0
55272.0,STARLINK-5310,PAYLOAD,2023-03-03 01:29:55,15.69492148,0.0003198,70.0019,309.3566,249.0348,111.0506,-0.0015186,-0.00175868,0.0,0 STARLINK-5310,1 55272U 23010D   23062.06244847 -.00175868  00000-0 -15186-2 0  9995,2 55272  70.0019 309.3566 0003198 249.0348 111.0506 15.69492148  7182,6738.487,91.749,362.507,358.197,0.0
55272.0,STARLINK-5310,PAYLOAD,2023-03-03 22:54:48,15.69443052,0.000805,70.0019,306.8505,208.4733,151.6024,-0.00039427,-0.00046508,0.0,0 STARLINK-5310,1 55272U 23010D   23062.95473068 -.00046508  00000-0 -39427-3 0  9995,2 55272  70.0019 306.8505 0008050 208.4733 151.6024 15.69443052  7327,6738.628,91.752,365.917,355.068,0.0
55272.0,STARLINK-5310,PAYLOAD,2023-03-04 10:00:01,15.65957806,0.0003669,70.0,305.5633,271.5861,168.5401,-0.01094,-0.01010266,0.0,0 STARLINK-5310,1 55272U 23010D   23063.41668981 -.01010266  00000-0 -10940-1 0  9997,2 55272  70.0000 305.5633 0003669 271.5861 168.5401 15.65957806  7395,6748.623,91.957,372.964,368.011,0.0
55272.0,STARLINK-5310,PAYLOAD,2023-03-04 14:00:01,15.65607794,0.0003702,69.9998,305.0978,266.3915,32.842,-0.011491,-0.01042734,0.0,0 STARLINK-5310,1 55272U 23010D   23063.58334491 -.01042734  00000-0 -11491-1 0  9998,2 55272  69.9998 305.0978 0003702 266.3915  32.8420 15.65607794  1302,6749.628,91.977,373.992,368.995,0.0
55272.0,STARLINK-5310,PAYLOAD,2023-03-04 22:00:00,15.64832004,0.0003792,70.0,304.1671,271.6549,105.285,-0.011843,-0.01041903,0.0,0 STARLINK-5310,1 55272U 23010D   23063.91667824 -.01041903  00000-0 -11843-1 0  9992,2 55272  70.0000 304.1671 0003792 271.6549 105.2850 15.64832004  1305,6751.859,92.023,376.284,371.164,0.0
55272.0,STARLINK-5310,PAYLOAD,2023-03-05 00:00:00,15.6462781,0.0003573,70.0,303.9345,274.8733,211.3482,-0.011525,-0.01009089,0.0,0 STARLINK-5310,1 55272U 23010D   23064.00001157 -.01009089  00000-0 -11525-1 0  9990,2 55272  70.0000 303.9345 0003573 274.8733 211.3482 15.64627810  7490,6752.446,92.035,376.724,371.899,0.0
55272.0,STARLINK-5310,PAYLOAD,2023-03-05 14:00:01,15.63320466,0.0003386,69.9998,302.3092,267.0424,262.5357,-0.0125,-0.01036083,0.0,0 STARLINK-5310,1 55272U 23010D   23064.58334491 -.01036083  00000-0 -12500-1 0  9991,2 55272  69.9998 302.3092 0003386 267.0424 262.5357 15.63320466  1307,6756.21,92.112,380.363,375.788,0.0
55272.0,STARLINK-5310,PAYLOAD,2023-03-05 16:00:00,15.63168835,0.0003563,69.9999,302.0772,264.9644,13.4265,-0.013434,-0.0111715,0.0,0 STARLINK-5310,1 55272U 23010D   23064.66667824 -.01117150  00000-0 -13434-1 0  9991,2 55272  69.9999 302.0772 0003563 264.9644  13.4265 15.63168835  7595,6756.647,92.121,380.92,376.105,0.0
55272.0,STARLINK-5310,PAYLOAD,2023-03-05 22:00:00,15.62527798,0.0003452,69.9995,301.382,270.6248,333.9263,-0.012484,-0.01006232,0.0,0 STARLINK-5310,1 55272U 23010D   23064.91667824 -.01006232  00000-0 -12484-1 0  9991,2 55272  69.9995 301.3820 0003452 270.6248 333.9263 15.62527798  1305,6758.495,92.158,382.693,378.027,0.0
55272.0,STARLINK-5310,PAYLOAD,2023-03-06 08:00:01,15.61607542,0.0003525,69.9989,300.2238,271.7018,155.2514,-0.013679,-0.01074239,0.0,0 STARLINK-5310,1 55272U 23010D   23065.33334491 -.01074239  00000-0 -13679-1 0  9998,2 55272  69.9989 300.2238 0003525 271.7018 155.2514 15.61607542  7694,6761.15,92.213,385.398,380.632,0.0
55272.0,STARLINK-5310,PAYLOAD,2023-03-06 22:00:00,15.60251573,0.0003388,69.999,298.6055,272.3392,191.5996,-0.013756,-0.01014095,0.0,0 STARLINK-5310,1 55272U 23010D   23065.91667824 -.01014095  00000-0 -13756-1 0  9991,2 55272  69.9990 298.6055 0003388 272.3392 191.5996 15.60251573  1309,6765.067,92.293,389.224,384.64,0.0
55272.0,STARLINK-5310,PAYLOAD,2023-03-07 08:00:01,15.59318925,0.0003239,69.9987,297.4514,268.4246,14.4985,-0.014801,-0.01065077,0.0,0 STARLINK-5310,1 55272U 23010D   23066.33334491 -.01065077  00000-0 -14801-1 0  9997,2 55272  69.9987 297.4514 0003239 268.4246  14.4985 15.59318925  7851,6767.764,92.348,391.821,387.437,0.0
55272.0,STARLINK-5310,PAYLOAD,2023-03-07 22:00:00,15.57966053,0.0003433,69.9983,295.8388,273.1869,41.9291,-0.014911,-0.01023251,0.0,0 STARLINK-5310,1 55272U 23010D   23066.91667824 -.01023251  00000-0 -14911-1 0  9990,2 55272  69.9983 295.8388 0003433 273.1869  41.9291 15.57966053  1306,6771.681,92.428,395.871,391.222,0.0
55272.0,STARLINK-5310,PAYLOAD,2023-03-08 08:00:01,15.57029262,0.0003265,69.998,294.6885,270.9663,219.7115,-0.01586,-0.01048274,0.0,0 STARLINK-5310,1 55272U 23010D   23067.33334491 -.01048274  00000-0 -15860-1 0  9994,2 55272  69.9980 294.6885 0003265 270.9663 219.7115 15.57029262  8019,6774.397,92.484,398.474,394.05,0.0
55272.0,STARLINK-5310,PAYLOAD,2023-03-08 22:00:00,15.55690313,0.0003287,69.9982,293.0813,271.6926,246.384,-0.016397,-0.01032514,0.0,0 STARLINK-5310,1 55272U 23010D   23067.91667824 -.01032514  00000-0 -16397-1 0  9993,2 55272  69.9982 293.0813 0003287 271.6926 246.3840 15.55690313  1304,6778.284,92.563,402.377,397.921,0.0
55272.0,STARLINK-5310,PAYLOAD,2023-03-09 02:00:01,15.55327166,0.0003468,69.9981,292.6226,272.5413,98.5559,-0.016994,-0.01053842,0.0,0 STARLINK-5310,1 55272U 23010D   23068.08334491 -.01053842  00000-0 -16994-1 0  9993,2 55272  69.9981 292.6226 0003468 272.5413  98.5559 15.55327166  8122,6779.339,92.585,403.555,398.853,0.0
55272.0,STARLINK-5310,PAYLOAD,2023-03-10 00:00:00,15.5322086,0.0003334,69.9979,290.1048,275.8795,182.8006,-0.017945,-0.01032102,0.0,0 STARLINK-5310,1 55272U 23010D   23069.00001157 -.01032102  00000-0 -17945-1 0  9999,2 55272  69.9979 290.1048 0003334 275.8795 182.8006 15.53220860  1303,6785.466,92.711,409.594,405.069,0.0
55272.0,STARLINK-5310,PAYLOAD,2023-03-10 14:00:01,15.51800857,0.0003446,69.9985,288.5068,265.7848,212.3136,-0.013407,-0.0074316,0.0,0 STARLINK-5310,1 55272U 23010D   23069.58334491 -.00743160  00000-0 -13407-1 0  9993,2 55272  69.9985 288.5068 0003446 265.7848 212.3136 15.51800857  8368,6789.605,92.795,413.81,409.13,0.0
55272.0,STARLINK-5310,PAYLOAD,2023-03-10 22:00:00,15.51254026,0.0003279,69.999,287.5952,270.4552,268.9078,-0.0018035,-0.00104824,0.0,0 STARLINK-5310,1 55272U 23010D   23069.91667824 -.00104824  00000-0 -18035-2 0  9990,2 55272  69.9990 287.5952 0003279 270.4552 268.9078 15.51254026  8413,6791.201,92.828,415.292,410.839,0.0
